{"type": "FeatureCollection", "features": [ {"type": "Feature", "properties": {"norad_id": 34400, "name": "COSMOS 2251 DEB", "group": "cosmos-2251-debris", "lat": 20.226079264364074, "lon": -149.37247888990473, "alt_km": 417.3785420366494, "timestamp": "2025-12-06T16:45:43.115794+00:00", "meta": {"OBJECT_NAME": "COSMOS 2251 DEB", "OBJECT_ID": "1993-036QR", "EPOCH": "2025-12-05T13:44:34.644480", "MEAN_MOTION": 15.49622248, "ECCENTRICITY": 0.00071481, "INCLINATION": 73.9681, "RA_OF_ASC_NODE": 39.1879, "ARG_OF_PERICENTER": 270.2608, "MEAN_ANOMALY": 89.7786, "EPHEMERIS_TYPE": 0, "CLASSIFICATION_TYPE": "U", "NORAD_CAT_ID": 34400, "ELEMENT_SET_NO": 999, "REV_AT_EPOCH": 89863, "BSTAR": 0.0048528549, "MEAN_MOTION_DOT": 0.0027849, "MEAN_MOTION_DDOT": 0}, "tle": {"line1": "1 34400U 93036QR  25339.57262320  .00278490  00000+0  48529-2 0  9990", "line2": "2 34400  73.9681  39.1879 0007148 270.2608  89.7786 15.49622248898631"}}, "geometry": {"type": "Point", "coordinates": [-149.37247888990473, 20.226079264364074]}}, {"type": "Feature", "properties": {"norad_id": 34409, "name": "COSMOS 2251 DEB", "group": "cosmos-2251-debris", "lat": -55.278952185647796, "lon": -66.04060605076282, "alt_km": 708.7795739800358, "timestamp": "2025-12-06T16:45:43.115804+00:00", "meta": {"OBJECT_NAME": "COSMOS 2251 DEB", "OBJECT_ID": "1993-036RA", "EPOCH": "2025-12-06T00:51:44.395200", "MEAN_MOTION": 14.58001055, "ECCENTRICITY": 0.00795584, "INCLINATION": 74.0627, "RA_OF_ASC_NODE": 319.5697, "ARG_OF_PERICENTER": 35.7131, "MEAN_ANOMALY": 30.6939, "EPHEMERIS_TYPE": 0, "CLASSIFICATION_TYPE": "U", "NORAD_CAT_ID": 34409, "ELEMENT_SET_NO": 999, "REV_AT_EPOCH": 89095, "BSTAR": 0.00042443319, "MEAN_MOTION_DOT": 2.007e-05, "MEAN_MOTION_DDOT": 0}, "tle": {"line1": "1 34409U 93036RA  25340.03593050  .00002007  00000+0  42443-3 0  9998", "line2": "2 34409  74.0627 319.5697 0079558  35.7131  30.6939 14.58001055890952"}}, "geometry": {"type": "Point", "coordinates": [-66.04060605076282, -55.278952185647796]}}, {"type": "Feature", "properties": {"norad_id": 34410, "name": "COSMOS 2251 DEB", "group": "cosmos-2251-debris", "lat": 66.9041014017424, "lon": 51.415270350368026, "alt_km": 490.7861576670357, "timestamp": "2025-12-06T16:45:43.115814+00:00", "meta": {"OBJECT_NAME": "COSMOS 2251 DEB", "OBJECT_ID": "1993-036RB", "EPOCH": "2025-12-05T21:35:53.931264", "MEAN_MOTION": 15.17921444, "ECCENTRICITY": 0.0020798, "INCLINATION": 73.7399, "RA_OF_ASC_NODE": 276.3024, "ARG_OF_PERICENTER": 118.3137, "MEAN_ANOMALY": 306.6601, "EPHEMERIS_TYPE": 0, "CLASSIFICATION_TYPE": "U", "NORAD_CAT_ID": 34410, "ELEMENT_SET_NO": 999, "REV_AT_EPOCH": 89670, "BSTAR": 0.0034701247, "MEAN_MOTION_DOT": 0.00071474, "MEAN_MOTION_DDOT": 0}, "tle": {"line1": "1 34410U 93036RB  25339.89992976  .00071474  00000+0  34701-2 0  9993", "line2": "2 34410  73.7399 276.3024 0020798 118.3137 306.6601 15.17921444896706"}}, "geometry": {"type": "Point", "coordinates": [51.415270350368026, 66.9041014017424]}}, {"type": "Feature", "properties": {"norad_id": 34412, "name": "COSMOS 2251 DEB", "group": "cosmos-2251-debris", "lat": 26.629887277169466, "lon": -15.72873410472916, "alt_km": 637.9425168251882, "timestamp": "2025-12-06T16:45:43.115825+00:00", "meta": {"OBJECT_NAME": "COSMOS 2251 DEB", "OBJECT_ID": "1993-036RD", "EPOCH": "2025-12-06T00:02:38.947488", "MEAN_MOTION": 14.47029098, "ECCENTRICITY": 0.01871124, "INCLINATION": 73.948, "RA_OF_ASC_NODE": 337.2799, "ARG_OF_PERICENTER": 73.9365, "MEAN_ANOMALY": 288.2307, "EPHEMERIS_TYPE": 0, "CLASSIFICATION_TYPE": "U", "NORAD_CAT_ID": 34412, "ELEMENT_SET_NO": 999, "REV_AT_EPOCH": 87553, "BSTAR": 0.0016006972, "MEAN_MOTION_DOT": 7.233e-05, "MEAN_MOTION_DDOT": 0}, "tle": {"line1": "1 34412U 93036RD  25340.00183967  .00007233  00000+0  16007-2 0  9993", "line2": "2 34412  73.9480 337.2799 0187112  73.9365 288.2307 14.47029098875532"}}, "geometry": {"type": "Point", "coordinates": [-15.72873410472916, 26.629887277169466]}}, {"type": "Feature", "properties": {"norad_id": 34413, "name": "COSMOS 2251 DEB", "group": "cosmos-2251-debris", "lat": -12.15187622058036, "lon": 99.38401116311528, "alt_km": 860.5021349518638, "timestamp": "2025-12-06T16:45:43.115835+00:00", "meta": {"OBJECT_NAME": "COSMOS 2251 DEB", "OBJECT_ID": "1993-036RE", "EPOCH": "2025-12-06T02:30:45.608256", "MEAN_MOTION": 14.29009747, "ECCENTRICITY": 0.00907549, "INCLINATION": 74.0321, "RA_OF_ASC_NODE": 276.9269, "ARG_OF_PERICENTER": 354.6279, "MEAN_ANOMALY": 25.0997, "EPHEMERIS_TYPE": 0, "CLASSIFICATION_TYPE": "U", "NORAD_CAT_ID": 34413, "ELEMENT_SET_NO": 999, "REV_AT_EPOCH": 87036, "BSTAR": 0.0028308729, "MEAN_MOTION_DOT": 7.469e-05, "MEAN_MOTION_DDOT": 0}, "tle": {"line1": "1 34413U 93036RE  25340.10469454  .00007469  00000+0  28309-2 0  9992", "line2": "2 34413  74.0321 276.9269 0090754 354.6279  25.0997 14.29009747870365"}}, "geometry": {"type": "Point", "coordinates": [99.38401116311528, -12.15187622058036]}}, {"type": "Feature", "properties": {"norad_id": 34420, "name": "COSMOS 2251 DEB", "group": "cosmos-2251-debris", "lat": 26.411573858386728, "lon": -72.53036712012528, "alt_km": 659.0076590066938, "timestamp": "2025-12-06T16:45:43.115845+00:00", "meta": {"OBJECT_NAME": "COSMOS 2251 DEB", "OBJECT_ID": "1993-036RM", "EPOCH": "2025-12-06T03:13:30.407808", "MEAN_MOTION": 14.68265457, "ECCENTRICITY": 0.01068887, "INCLINATION": 74.0331, "RA_OF_ASC_NODE": 116.7352, "ARG_OF_PERICENTER": 239.3876, "MEAN_ANOMALY": 174.0492, "EPHEMERIS_TYPE": 0, "CLASSIFICATION_TYPE": "U", "NORAD_CAT_ID": 34420, "ELEMENT_SET_NO": 999, "REV_AT_EPOCH": 89673, "BSTAR": 0.00043723842, "MEAN_MOTION_DOT": 2.714e-05, "MEAN_MOTION_DDOT": 0}, "tle": {"line1": "1 34420U 93036RM  25340.13437972  .00002714  00000+0  43724-3 0  9990", "line2": "2 34420  74.0331 116.7352 0106888 239.3876 174.0492 14.68265457896735"}}, "geometry": {"type": "Point", "coordinates": [-72.53036712012528, 26.411573858386728]}}, {"type": "Feature", "properties": {"norad_id": 34425, "name": "COSMOS 2251 DEB", "group": "cosmos-2251-debris", "lat": 14.530785476253437, "lon": 70.355023627839, "alt_km": 704.9221370748064, "timestamp": "2025-12-06T16:45:43.115855+00:00", "meta": {"OBJECT_NAME": "COSMOS 2251 DEB", "OBJECT_ID": "1993-036RS", "EPOCH": "2025-12-06T05:11:50.426304", "MEAN_MOTION": 14.62067771, "ECCENTRICITY": 0.00252905, "INCLINATION": 74.0209, "RA_OF_ASC_NODE": 67.0188, "ARG_OF_PERICENTER": 195.1124, "MEAN_ANOMALY": 164.929, "EPHEMERIS_TYPE": 0, "CLASSIFICATION_TYPE": "U", "NORAD_CAT_ID": 34425, "ELEMENT_SET_NO": 999, "REV_AT_EPOCH": 88645, "BSTAR": 0.0011023055, "MEAN_MOTION_DOT": 5.535e-05, "MEAN_MOTION_DDOT": 0}, "tle": {"line1": "1 34425U 93036RS  25340.21655586  .00005535  00000+0  11023-2 0  9997", "line2": "2 34425  74.0209  67.0188 0025290 195.1124 164.9290 14.62067771886456"}}, "geometry": {"type": "Point", "coordinates": [70.355023627839, 14.530785476253437]}}, {"type": "Feature", "properties": {"norad_id": 34429, "name": "COSMOS 2251 DEB", "group": "cosmos-2251-debris", "lat": 0.8909938656003439, "lon": 0.8637495285210592, "alt_km": 456.44799220325785, "timestamp": "2025-12-06T16:45:43.115866+00:00", "meta": {"OBJECT_NAME": "COSMOS 2251 DEB", "OBJECT_ID": "1993-036RW", "EPOCH": "2025-12-06T01:03:12.559968", "MEAN_MOTION": 15.38278003, "ECCENTRICITY": 0.00055805, "INCLINATION": 73.9708, "RA_OF_ASC_NODE": 182.5359, "ARG_OF_PERICENTER": 26.5927, "MEAN_ANOMALY": 128.9917, "EPHEMERIS_TYPE": 0, "CLASSIFICATION_TYPE": "U", "NORAD_CAT_ID": 34429, "ELEMENT_SET_NO": 999, "REV_AT_EPOCH": 89345, "BSTAR": 0.0055960701, "MEAN_MOTION_DOT": 0.00217382, "MEAN_MOTION_DDOT": 0}, "tle": {"line1": "1 34429U 93036RW  25340.04389537  .00217382  00000+0  55961-2 0  9996", "line2": "2 34429  73.9708 182.5359 0005580  26.5927 128.9917 15.38278003893453"}}, "geometry": {"type": "Point", "coordinates": [0.8637495285210592, 0.8909938656003439]}}, {"type": "Feature", "properties": {"norad_id": 34430, "name": "COSMOS 2251 DEB", "group": "cosmos-2251-debris", "lat": -68.49980220847587, "lon": -92.03658527248645, "alt_km": 774.6771505159822, "timestamp": "2025-12-06T16:45:43.115876+00:00", "meta": {"OBJECT_NAME": "COSMOS 2251 DEB", "OBJECT_ID": "1993-036RX", "EPOCH": "2025-12-06T00:25:55.025472", "MEAN_MOTION": 14.39598247, "ECCENTRICITY": 0.0060038, "INCLINATION": 74.0519, "RA_OF_ASC_NODE": 315.7637, "ARG_OF_PERICENTER": 27.0843, "MEAN_ANOMALY": 333.3422, "EPHEMERIS_TYPE": 0, "CLASSIFICATION_TYPE": "U", "NORAD_CAT_ID": 34430, "ELEMENT_SET_NO": 999, "REV_AT_EPOCH": 87858, "BSTAR": 0.00089362873, "MEAN_MOTION_DOT": 2.826e-05, "MEAN_MOTION_DDOT": 0}, "tle": {"line1": "1 34430U 93036RX  25340.01799798  .00002826  00000+0  89363-3 0  9998", "line2": "2 34430  74.0519 315.7637 0060038  27.0843 333.3422 14.39598247878583"}}, "geometry": {"type": "Point", "coordinates": [-92.03658527248645, -68.49980220847587]}}, {"type": "Feature", "properties": {"norad_id": 34431, "name": "COSMOS 2251 DEB", "group": "cosmos-2251-debris", "lat": 58.33729742703853, "lon": -146.2857312525025, "alt_km": 807.4175181667315, "timestamp": "2025-12-06T16:45:43.115886+00:00", "meta": {"OBJECT_NAME": "COSMOS 2251 DEB", "OBJECT_ID": "1993-036RY", "EPOCH": "2025-12-05T23:39:49.669056", "MEAN_MOTION": 14.28742099, "ECCENTRICITY": 0.00686084, "INCLINATION": 74.0744, "RA_OF_ASC_NODE": 187.424, "ARG_OF_PERICENTER": 174.9453, "MEAN_ANOMALY": 185.2405, "EPHEMERIS_TYPE": 0, "CLASSIFICATION_TYPE": "U", "NORAD_CAT_ID": 34431, "ELEMENT_SET_NO": 999, "REV_AT_EPOCH": 87046, "BSTAR": 0.00091812939, "MEAN_MOTION_DOT": 2.345e-05, "MEAN_MOTION_DDOT": 0}, "tle": {"line1": "1 34431U 93036RY  25339.98599154  .00002345  00000+0  91813-3 0  9996", "line2": "2 34431  74.0744 187.4240 0068608 174.9453 185.2405 14.28742099870466"}}, "geometry": {"type": "Point", "coordinates": [-146.2857312525025, 58.33729742703853]}}]}